CSS (TIANHE)            
1 48274U 21035A   24167.82301631  .00037387  00000+0  41970-3 0  9991
2 48274  41.4678  91.4349 0003883 231.2306 128.8187 15.61886821178889
